[{"OBJECT_NAME":"STARLINK-32091","OBJECT_ID":"2024-086C","EPOCH":"2026-03-09T23:34:49.829088","MEAN_MOTION":15.27567165,"ECCENTRICITY":0.00010357,"INCLINATION":43.0011,"RA_OF_ASC_NODE":50.7412,"ARG_OF_PERICENTER":266.0164,"MEAN_ANOMALY":94.057,"EPHEMERIS_TYPE":0,"CLASSIFICATION_TYPE":"U","NORAD_CAT_ID":59684,"ELEMENT_SET_NO":999,"REV_AT_EPOCH":10425,"BSTAR":0.0001172637,"MEAN_MOTION_DOT":2.965e-5,"MEAN_MOTION_DDOT":0},{"OBJECT_NAME":"LUR-1","OBJECT_ID":"2024-149AQ","EPOCH":"2026-03-09T19:05:45.284064","MEAN_MOTION":15.28658648,"ECCENTRICITY":0.00027765,"INCLINATION":97.379,"RA_OF_ASC_NODE":148.4255,"ARG_OF_PERICENTER":309.1571,"MEAN_ANOMALY":50.9421,"EPHEMERIS_TYPE":0,"CLASSIFICATION_TYPE":"U","NORAD_CAT_ID":60506,"ELEMENT_SET_NO":999,"REV_AT_EPOCH":8678,"BSTAR":0.0003298462,"MEAN_MOTION_DOT":9.121e-5,"MEAN_MOTION_DDOT":0}]
